SPACEBEE-54             
1 47460U 21006AZ  22202.08478208  .00026328  00000+0  11115-2 0  9996
2 47460  97.4389 262.0207 0010231 150.7317 209.4495 15.23200503 82478
SPACEBEE-58             
1 47464U 21006BD  22202.09376261  .00027085  00000+0  10969-2 0  9994
2 47464  97.4421 263.3332 0012695 148.3404 211.8599 15.24571743 82546
SPACEBEE-57             
1 47465U 21006BE  22202.13688130  .00007314  00000+0  39168-3 0  9997
2 47465  97.4357 259.4569 0005918 163.8093 196.3330 15.15298040 82310
SPACEBEE-44             
1 47466U 21006BF  22202.14513087  .00023152  00000+0  10366-2 0  9993
2 47466  97.4388 261.0546 0006701 153.7496 206.4081 15.21251304 82411
SPACEBEE-56             
1 47468U 21006BH  22201.72592343  .00021898  00000+0  99391-3 0  9991
2 47468  97.4396 260.5707 0006701 156.6544 203.4997 15.20795108 82340
SPACEBEE-45             
1 47470U 21006BK  22202.40655019  .00018995  00000+0  85368-3 0  9993
2 47470  97.4393 261.3521 0006933 153.8522 206.3065 15.21162822 82457
SPACEBEE-43             
1 47480U 21006BV  22202.14246387  .00023694  00000+0  10579-2 0  9992
2 47480  97.4389 261.0486 0006644 153.7462 206.4111 15.21341787 82419
SPACEBEE-87             
1 47703U 21015E   22201.78652043  .00042138  00000+0  11330-2 0  9999
2 47703  97.4138 279.4647 0005570 312.3354  47.7419 15.37757924 77389
SPACEBEE-86             
1 47704U 21015F   22201.79062055  .00046137  00000+0  12098-2 0  9994
2 47704  97.4124 279.5852 0005804 306.1945  53.8762 15.38510687 77373
SPACEBEE-85             
1 47705U 21015G   22202.17642764  .00044701  00000+0  11665-2 0  9993
2 47705  97.4128 279.9826 0005440 307.3035  52.7714 15.38668529 77455
SPACEBEE-84             
1 47706U 21015H   22201.77394011  .00048710  00000+0  12669-2 0  9997
2 47706  97.4125 279.6036 0005457 308.9071  51.1687 15.38749872 77394
SPACEBEE-83             
1 47707U 21015J   22201.77616601  .00049333  00000+0  12712-2 0  9991
2 47707  97.4116 279.5866 0005373 310.5085  49.5692 15.39033813 77395
SPACEBEE-82             
1 47708U 21015K   22201.76608933  .00052514  00000+0  13197-2 0  9993
2 47708  97.4118 279.7403 0005089 308.8307  51.2484 15.39787184 77406
SPACEBEE-81             
1 47709U 21015L   22201.73423362  .00053733  00000+0  13295-2 0  9995
2 47709  97.4123 279.7955 0005063 306.4910  53.5869 15.40255697 77325
SPACEBEE-78             
1 47710U 21015M   22201.73949904  .00057226  00000+0  13736-2 0  9993
2 47710  97.4121 279.9398 0004811 306.7127  53.3677 15.41162135 77411
SPACEBEE-76             
1 47711U 21015N   22201.77520829  .00065504  00000+0  15052-2 0  9990
2 47711  97.4113 280.1910 0004539 300.5234  59.5565 15.42440111 77435
SPACEBEE-80             
1 47712U 21015P   22201.77548539  .00056796  00000+0  13877-2 0  9995
2 47712  97.4121 279.8908 0004834 307.6919  52.3889 15.40625364 77414
SPACEBEE-77             
1 47714U 21015Q   22202.12639994  .00068563  00000+0  15871-2 0  9994
2 47714  97.4120 280.4945 0004680 298.7102  61.3675 15.42205438 77407
SPACEBEE-79             
1 47715U 21015R   22201.72513123  .00054327  00000+0  13351-2 0  9999
2 47715  97.4145 279.8719 0005095 307.1597  52.9183 15.40459116 77402
SPACEBEE-65             
1 48626U 21006ES  22202.40322156  .00024631  00000+0  99023-3 0  9997
2 48626  97.2063 249.5560 0014199 132.3473 227.8971 15.24815737 82574
SPACEBEE-64             
1 48627U 21006ET  22202.12730488  .00026231  00000+0  10492-2 0  9998
2 48627  97.2061 249.3199 0014132 132.9110 227.3317 15.24974939 82535
SPACEBEE-66             
1 48628U 21006EU  22202.10531375  .00026958  00000+0  10943-2 0  9998
2 48628  97.2059 249.1966 0014239 133.3185 226.9243 15.24471671 82525
SPACEBEE-67             
1 48629U 21006EV  22202.11611415  .00023418  00000+0  95507-3 0  9992
2 48629  97.2059 249.1825 0014342 133.9123 226.3301 15.24341871 82520
SPACEBEE-68             
1 48630U 21006EW  22202.13287752  .00023662  00000+0  96933-3 0  9994
2 48630  97.2057 249.1625 0014464 133.5297 226.7146 15.24187781 82520
SPACEBEE-69             
1 48631U 21006EX  22202.41064825  .00022746  00000+0  93618-3 0  9999
2 48631  97.2063 249.3994 0014510 133.0248 227.2208 15.24037667 82568
SPACEBEE-70             
1 48632U 21006EY  22202.10270107  .00025333  00000+0  10468-2 0  9994
2 48632  97.2058 249.0562 0014655 134.1183 226.1263 15.23879760 82512
SPACEBEE-71             
1 48633U 21006EZ  22202.39001819  .00021388  00000+0  88936-3 0  9990
2 48633  97.2059 249.2736 0014922 133.3541 226.8943 15.23698591 82552
SPACEBEE-72             
1 48634U 21006FA  22202.09636466  .00024468  00000+0  10263-2 0  9999
2 48634  97.2058 248.9183 0015100 134.1616 226.0866 15.23374887 82505
SPACEBEE-73             
1 48635U 21006FB  22201.59107451  .00022829  00000+0  96240-3 0  9990
2 48635  97.2058 248.3893 0015321 136.3907 223.8544 15.23215918 82428
SPACEBEE-74             
1 48636U 21006FC  22201.63618060  .00021328  00000+0  91033-3 0  9997
2 48636  97.2057 248.3313 0015553 136.6714 223.5749 15.22806145 82422
SPACEBEE-75             
1 48637U 21006FD  22202.12931965  .00019590  00000+0  84175-3 0  9992
2 48637  97.2058 248.7268 0015884 135.2575 224.9946 15.22590585 82493
SPACEBEENZ-10           
1 48882U 21059D   22202.34507513  .00012853  00000+0  62666-3 0  9990
2 48882  97.5558 332.1321 0007374   2.0815 358.0448 15.18433585 59091
SPACEBEE-100            
1 48883U 21059E   22201.86760240  .00009282  00000+0  48233-3 0  9991
2 48883  97.5582 331.2841 0008073 358.6114   1.5095 15.16280638 58998
SPACEBEE-101            
1 48884U 21059F   22202.33820160  .00007551  00000+0  39475-3 0  9998
2 48884  97.5584 331.7392 0007901   1.8084 358.3176 15.16135617 59067
SPACEBEE-102            
1 48886U 21059H   22201.99924579  .00008815  00000+0  45921-3 0  9997
2 48886  97.5583 331.4216 0007997   2.1057 358.0208 15.16207532 59013
SPACEBEENZ-9            
1 48887U 21059J   22201.62101678  .00015380  00000+0  74961-3 0  9996
2 48887  97.5558 331.4048 0007385   4.8183 355.3121 15.18403681 58983
SPACEBEE-103            
1 48888U 21059K   22202.30098474  .00008857  00000+0  45856-3 0  9994
2 48888  97.5588 331.7922 0008039 358.1748   1.9454 15.16423434 59069
SPACEBEENZ-7            
1 48889U 21059L   22202.11370432  .00015697  00000+0  76078-3 0  9991
2 48889  97.5574 332.0790 0007862   0.7229 359.4015 15.18590999 59066
SPACEBEE-104            
1 48890U 21059M   22201.86909194  .00009029  00000+0  46709-3 0  9997
2 48890  97.5582 331.2655 0008073   3.0158 357.1122 15.16448701 58996
SPACEBEENZ-8            
1 48891U 21059N   22201.85301070  .00015603  00000+0  75786-3 0  9998
2 48891  97.5577 331.8109 0007943   2.0544 358.0721 15.18516777 59025
SPACEBEE-106            
1 48893U 21059Q   22202.36132908  .00008509  00000+0  44179-3 0  9998
2 48893  97.5605 331.9606 0008550   0.1600 359.9633 15.16332442 59079
SPACEBEE-107            
1 48894U 21059R   22202.13489636  .00008837  00000+0  45382-3 0  9998
2 48894  97.5606 331.8036 0008341 359.7275   0.3952 15.16710321 59040
SPACEBEE-108            
1 48895U 21059S   22202.35792974  .00008717  00000+0  45254-3 0  9990
2 48895  97.5602 331.9474 0008638 359.7543   0.3684 15.16328433 59075
SPACEBEE-105            
1 48896U 21059T   22201.68643029  .00010524  00000+0  54605-3 0  9991
2 48896  97.5584 331.0460 0007986 353.1304   6.9818 15.16299337 58967
SPACEBEE-109            
1 48897U 21059U   22201.61593328  .00010354  00000+0  53288-3 0  9998
2 48897  97.5605 331.2384 0008698   0.8274 359.2972 15.16584451 58961
SPACEBEE-110            
1 48899U 21059W   22202.08854095  .00010194  00000+0  52030-3 0  9999
2 48899  97.5610 331.8658 0008745 356.7714   3.3461 15.16882721 59045
SPACEBEE-111            
1 48904U 21059AB  22202.35422834  .00008912  00000+0  45011-3 0  9994
2 48904  97.5617 332.3122 0009785 355.5338   4.5806 15.17284288 59091
SPACEBEE-92             
1 48932U 21059BF  22202.11756509  .00029830  00000+0  11605-2 0  9991
2 48932  97.5470 333.8027 0012890 346.7333  13.3564 15.25894777 59208
SPACEBEE-89             
1 48933U 21059BG  22201.59592598  .00031072  00000+0  11788-2 0  9992
2 48933  97.5464 333.4041 0012638 347.9428  12.1506 15.26725557 59137
SPACEBEE-96             
1 48934U 21059BH  22202.16723352  .00025820  00000+0  10239-2 0  9995
2 48934  97.5474 333.7455 0013033 347.2147  12.8758 15.25285370 59209
SPACEBEE-88             
1 48935U 21059BJ  22202.17512253  .00030880  00000+0  11629-2 0  9999
2 48935  97.5454 333.9975 0012545 345.7780  14.3103 15.26972520 59224
SPACEBEE-99             
1 48936U 21059BK  22202.14212992  .00022947  00000+0  92650-3 0  9993
2 48936  97.5479 333.6426 0013203 347.5081  12.5827 15.24703651 59190
SPACEBEE-94             
1 48937U 21059BL  22201.87422076  .00026058  00000+0  10235-2 0  9994
2 48937  97.5465 333.5013 0012887 348.1370  11.9562 15.25605241 59165
SPACEBEE-93             
1 48939U 21059BN  22201.88577159  .00028684  00000+0  10981-2 0  9995
2 48939  97.5463 333.6352 0012740 348.0339  12.0595 15.26441297 59173
SPACEBEE-91             
1 48940U 21059BP  22201.87460664  .00030144  00000+0  11512-2 0  9993
2 48940  97.5465 333.6516 0012737 347.2193  12.8720 15.26510721 59171
SPACEBEE-95             
1 48945U 21059BU  22201.92535871  .00028510  00000+0  11119-2 0  9994
2 48945  97.5476 333.6088 0012936 347.2672  12.8237 15.25822233 59171
SPACEBEE-97             
1 48946U 21059BV  22202.18282878  .00025404  00000+0  10150-2 0  9993
2 48946  97.5475 333.7294 0013127 347.2753  12.8151 15.25035945 59209
SPACEBEE-90             
1 48947U 21059BW  22201.93232552  .00030759  00000+0  11706-2 0  9997
2 48947  97.5464 333.7259 0012704 346.9012  13.1895 15.26622314 59182
SPACEBEE-98             
1 48949U 21059BY  22202.31248799  .00024771  00000+0  98828-3 0  9990
2 48949  97.5489 333.8891 0013196 346.0188  14.0682 15.25088357 59226
SPACEBEE-121            
1 52009U 22026B   22201.55434574  .00009942  00000+0  51755-3 0  9991
2 52009  97.5015 201.0275 0027899 155.9825 204.2716 15.15880480 19206
